{
  "links" : {
    "next" : "https://api.nasa.gov/neo/rest/v1/feed?start_date=2015-10-23&end_date=2015-10-23&detailed=true&api_key=t0TVs3DtDT2H8Oy2Zy8m2eVrNsAVKAexjcZXUckd",
    "prev" : "https://api.nasa.gov/neo/rest/v1/feed?start_date=2015-10-21&end_date=2015-10-21&detailed=true&api_key=t0TVs3DtDT2H8Oy2Zy8m2eVrNsAVKAexjcZXUckd",
    "self" : "https://api.nasa.gov/neo/rest/v1/feed?start_date=2015-10-22&end_date=2015-10-22&detailed=true&api_key=t0TVs3DtDT2H8Oy2Zy8m2eVrNsAVKAexjcZXUckd"
  },
  "element_count" : 12,
  "near_earth_objects" : {
    "2015-10-22" : [ {
      "links" : {
        "self" : "https://api.nasa.gov/neo/rest/v1/neo/2450649?api_key=t0TVs3DtDT2H8Oy2Zy8m2eVrNsAVKAexjcZXUckd"
      },
      "neo_reference_id" : "2450649",
      "name" : "450649 (2006 UY64)",
      "nasa_jpl_url" : "http://ssd.jpl.nasa.gov/sbdb.cgi?sstr=2450649",
      "absolute_magnitude_h" : 19.5,
      "estimated_diameter" : {
        "kilometers" : {
          "estimated_diameter_min" : 0.3346223745,
          "estimated_diameter_max" : 0.7482383761
        },
        "meters" : {
          "estimated_diameter_min" : 334.6223744549,
          "estimated_diameter_max" : 748.2383760735
        },
        "miles" : {
          "estimated_diameter_min" : 0.2079246394,
          "estimated_diameter_max" : 0.464933628
        },
        "feet" : {
          "estimated_diameter_min" : 1097.8424710066,
          "estimated_diameter_max" : 2454.8503937571
        }
      },
      "is_potentially_hazardous_asteroid" : false,
      "close_approach_data" : [ {
        "close_approach_date" : "2015-10-22",
        "epoch_date_close_approach" : 1445497200000,
        "relative_velocity" : {
          "kilometers_per_second" : "13.8105990216",
          "kilometers_per_hour" : "49718.156477818",
          "miles_per_hour" : "30892.9289514531"
        },
        "miss_distance" : {
          "astronomical" : "0.0611742837",
          "lunar" : "23.7967967987",
          "kilometers" : "9151543",
          "miles" : "5686505"
        },
        "orbiting_body" : "Earth"
      } ],
      "orbital_data" : {
        "orbit_id" : "68",
        "orbit_determination_date" : "2017-04-06 09:20:11",
        "orbit_uncertainty" : "0",
        "minimum_orbit_intersection" : ".0543609",
        "jupiter_tisserand_invariant" : "6.335",
        "epoch_osculation" : "2458000.5",
        "eccentricity" : ".1572953217107533",
        "semi_major_axis" : ".9315949656446578",
        "inclination" : "26.21613896203354",
        "ascending_node_longitude" : "30.79596170964842",
        "orbital_period" : "328.4272064398105",
        "perihelion_distance" : ".7850594358194631",
        "perihelion_argument" : "210.8981090369046",
        "aphelion_distance" : "1.078130495469853",
        "perihelion_time" : "2457852.812599097322",
        "mean_anomaly" : "161.8850791970179",
        "mean_motion" : "1.096133307293395",
        "equinox" : "J2000"
      }
    }, {
      "links" : {
        "self" : "https://api.nasa.gov/neo/rest/v1/neo/3596037?api_key=t0TVs3DtDT2H8Oy2Zy8m2eVrNsAVKAexjcZXUckd"
      },
      "neo_reference_id" : "3596037",
      "name" : "(2012 BD14)",
      "nasa_jpl_url" : "http://ssd.jpl.nasa.gov/sbdb.cgi?sstr=3596037",
      "absolute_magnitude_h" : 26.5,
      "estimated_diameter" : {
        "kilometers" : {
          "estimated_diameter_min" : 0.0133215567,
          "estimated_diameter_max" : 0.0297879063
        },
        "meters" : {
          "estimated_diameter_min" : 13.3215566698,
          "estimated_diameter_max" : 29.7879062798
        },
        "miles" : {
          "estimated_diameter_min" : 0.008277629,
          "estimated_diameter_max" : 0.0185093411
        },
        "feet" : {
          "estimated_diameter_min" : 43.7058959846,
          "estimated_diameter_max" : 97.7293544391
        }
      },
      "is_potentially_hazardous_asteroid" : false,
      "close_approach_data" : [ {
        "close_approach_date" : "2015-10-22",
        "epoch_date_close_approach" : 1445497200000,
        "relative_velocity" : {
          "kilometers_per_second" : "6.658687303",
          "kilometers_per_hour" : "23971.2742909354",
          "miles_per_hour" : "14894.8176281649"
        },
        "miss_distance" : {
          "astronomical" : "0.2605492591",
          "lunar" : "101.3536605835",
          "kilometers" : "38977612",
          "miles" : "24219566"
        },
        "orbiting_body" : "Earth"
      } ],
      "orbital_data" : {
        "orbit_id" : "15",
        "orbit_determination_date" : "2017-04-06 08:51:20",
        "orbit_uncertainty" : "5",
        "minimum_orbit_intersection" : ".00794758",
        "jupiter_tisserand_invariant" : "5.972",
        "epoch_osculation" : "2458000.5",
        "eccentricity" : ".2404473889271889",
        "semi_major_axis" : "1.017581859972657",
        "inclination" : "1.535572205347119",
        "ascending_node_longitude" : "292.145132714904",
        "orbital_period" : "374.9319593523397",
        "perihelion_distance" : ".7729069587225594",
        "perihelion_argument" : "293.6766440064006",
        "aphelion_distance" : "1.262256761222755",
        "perihelion_time" : "2457905.228083193553",
        "mean_anomaly" : "91.47763799481719",
        "mean_motion" : ".9601742156680022",
        "equinox" : "J2000"
      }
    }, {
      "links" : {
        "self" : "https://api.nasa.gov/neo/rest/v1/neo/3652982?api_key=t0TVs3DtDT2H8Oy2Zy8m2eVrNsAVKAexjcZXUckd"
      },
      "neo_reference_id" : "3652982",
      "name" : "(2013 UC1)",
      "nasa_jpl_url" : "http://ssd.jpl.nasa.gov/sbdb.cgi?sstr=3652982",
      "absolute_magnitude_h" : 24.7,
      "estimated_diameter" : {
        "kilometers" : {
          "estimated_diameter_min" : 0.0305179233,
          "estimated_diameter_max" : 0.0682401509
        },
        "meters" : {
          "estimated_diameter_min" : 30.5179232594,
          "estimated_diameter_max" : 68.2401509401
        },
        "miles" : {
          "estimated_diameter_min" : 0.0189629525,
          "estimated_diameter_max" : 0.0424024508
        },
        "feet" : {
          "estimated_diameter_min" : 100.1244233463,
          "estimated_diameter_max" : 223.8850168104
        }
      },
      "is_potentially_hazardous_asteroid" : false,
      "close_approach_data" : [ {
        "close_approach_date" : "2015-10-22",
        "epoch_date_close_approach" : 1445497200000,
        "relative_velocity" : {
          "kilometers_per_second" : "7.3262298735",
          "kilometers_per_hour" : "26374.4275446822",
          "miles_per_hour" : "16388.0436040832"
        },
        "miss_distance" : {
          "astronomical" : "0.1367546768",
          "lunar" : "53.1975708008",
          "kilometers" : "20458208",
          "miles" : "12712141"
        },
        "orbiting_body" : "Earth"
      } ],
      "orbital_data" : {
        "orbit_id" : "16",
        "orbit_determination_date" : "2017-04-06 08:44:05",
        "orbit_uncertainty" : "5",
        "minimum_orbit_intersection" : ".0597776",
        "jupiter_tisserand_invariant" : "4.337",
        "epoch_osculation" : "2458000.5",
        "eccentricity" : ".339339882435055",
        "semi_major_axis" : "1.574567989786643",
        "inclination" : "4.050551226224492",
        "ascending_node_longitude" : "25.78459658436569",
        "orbital_period" : "721.6731609400337",
        "perihelion_distance" : "1.040254273246443",
        "perihelion_argument" : "30.4781605747578",
        "aphelion_distance" : "2.108881706326843",
        "perihelion_time" : "2458059.413770567953",
        "mean_anomaly" : "330.6114089419139",
        "mean_motion" : ".4988407765241995",
        "equinox" : "J2000"
      }
    } ]
  }
}